# Made by eph2tle, compiled Feb  2 2025 14:11:09
# Run at Wed Feb 12 17:15:13 2025 UTC
#
# No updates    (object will,  deus volent,  go into lunar orbit)
#
#    The following TLEs (Two-Line Elements) were generated by fitting
# a numerically-integrated ephemeris,  based on the orbit given below,
# to the SDP4/SGP4 models.  Each TLE is good for the interval between
# its epoch and the epoch of the subsequent TLE (usually one day).
# The maximum deviation between the numerically integrated ephemerides
# and the TLE-based ephemeris, in kilometers,  is given for each TLE
# as the "worst residual".
#
#    This fitting is done using the 'eph2tle' code packaged with Find_Orb.
# The code has details on how the TLEs were computed :
#
#    https://github.com/Bill-Gray/find_orb/eph2tle.cpp
#
#    Be warned:  the error given is that between the numerically
# integrated ephems and the TLE model.  There will usually be at
# least some additional difference between the ephems and the actual
# motion of the satellite,  especially if the ephemerides are based
# on a short arc.  If the following orbital elements say something
# like "[based on] 10 observations 2015 Jan. 1-13",  and the TLEs
# are for 2015 May,  the extrapolation may be tenuous at best.  If
# your application requires a specific level of accuracy,  you may
# want to contact me;  I can give you some idea as to the fit of the
# underlying data (and possibly TLEs based on newer data).
#
#   You can usually find the underlying observational data,  and the
# fitted orbit,  residuals,  ephemerides,  and sometimes some comments
# about the object,  among the pages listed at
#
#    https://www.projectpluto.com/pluto/mpecs/pseudo.htm
#
#    Also,  if you use a TLE outside the "correct" time range (between
# its MJD and that of the next TLE),  all bets are off.  I've carefully
# computed and minimized the worst error over the "correct" time frame,
# but the ephemeris may (or may not) diverge wildly outside of it.
#
# Ephem range: 60691.000000 60720.000000 1.000000
# Created Wed Feb 12 12:15:02 2025
# Ephemeris start: 16 Jan 2025  0:00:00
# Ephemeris end:   14 Feb 2025  0:00:00
# Times are all TDT
# Positions/velocities are in equatorial J2000
# Orbital elements:  2025-010A = NORAD 62716 = Blue Ghost
#    Perigee 2025 Feb 1.008197 +/- 3.52e-6 TT =  0:11:48.2 (JD 2460707.508197)
# dx: -1.16 +/- 0.34   dy: -3.17 +/- 0.175   dz: -0.752 +/- 0.0285 m/s
# T0: 2025 Jan 23.821 +/- 0.00473
# Epoch 2025 Jan 30.0 TT = JDT 2460705.5                           Find_Orb
# M 271.232477754 +/- 0.00014         (J2000 equator)
# n  44.202592979 +/- 1.94e-5         Peri.  348.084277 +/- 0.000050
# a170990.3791 +/- 0.0501             Node   357.904553 +/- 0.000049
# e   0.93135444 +/- 2.82e-7          Incl.   36.262731 +/- 0.00007
# P   8.1442d                H 28.74  G  0.15   U  5.5
# q 11737.72977 +/- 0.0506    Q 330243.0285 +/- 0.0734
# 156 of 392 observations 2025 Jan. 20-Feb. 8; mean residual 0".585
#
# Orbital elements:  2025-010A = NORAD 62716 = Blue Ghost
#    Perigee 2025 Feb 9.215575 +/- 6.06e-6 TT =  5:10:25.6 (JD 2460715.715575)
# dx: 19.5 +/- 2.49   dy: 24.4 +/- 1.32   dz: 6.63 +/- 0.343 m/s
# T0: 2025 Feb 09.224 +/- 0.00215
# Epoch 2025 Feb 10.0 TT = JDT 2460716.5                           Find_Orb
# M  26.303057596 +/- 0.11            (J2000 equator)
# n  33.531634565 +/- 0.148           Peri.  348.534169 +/- 0.026
# a205573.4494 +/- 606                Node   357.708332 +/- 0.0006
# e   0.94301936 +/- 0.000146         Incl.   36.538963 +/- 0.00025
# P  10.7359d                H 28.85  G  0.15   U 11.5
# q 11713.70533 +/- 4.94    Q 399433.1935 +/- 1208
# 281 of 396 observations 2025 Jan. 24-Feb. 10; mean residual 6".817
#
# 1 NoradU COSPAR   Epoch.epoch     dn/dt/2  d2n/dt2/6 BSTAR    T El# C
# 2 NoradU Inclina RAAscNode Eccent  ArgPeri MeanAno  MeanMotion Rev# C

# Worst residual: 13.40 km
# MJD 60691.000000 (2025 Jan 16  0:00)
2025-010A = NORAD 62716 = Blue Ghost
1 62716U 25010A   25016.49919926  .00000000  00000-0  00000-0 0 26004
2 62716 035.9675 358.6039 9562255 347.5918 048.3861 00.12539779    07

# Worst residual: 129.59 km
# MJD 60692.000000 (2025 Jan 17  0:00)
2025-010A = NORAD 62716 = Blue Ghost
1 62716U 25010A   25017.49919926  .00000000  00000-0  00000-0 0 26005
2 62716 036.2999 358.3680 9566593 347.9345 091.6868 00.12390741    08

# Worst residual: 184.99 km
# MJD 60693.000000 (2025 Jan 18  0:00)
2025-010A = NORAD 62716 = Blue Ghost
1 62716U 25010A   25018.49919926  .00000000  00000-0  00000-0 0 26006
2 62716 036.7949 358.1010 9517413 348.9269 131.2777 00.12108015    07

# Worst residual: 96.26 km
# MJD 60694.000000 (2025 Jan 19  0:00)
2025-010A = NORAD 62716 = Blue Ghost
1 62716U 25010A   25019.49919926  .00000000  00000-0  00000-0 0 26007
2 62716 036.5367 358.2013 9404926 349.4160 172.1480 00.11950028    06

# Worst residual: 50.22 km
# MJD 60695.000000 (2025 Jan 20  0:00)
2025-010A = NORAD 62716 = Blue Ghost
1 62716U 25010A   25020.49919926  .00000000  00000-0  00000-0 0 26009
2 62716 036.2189 358.2889 9332293 349.3291 214.9239 00.11880029    07

# Worst residual: 24.37 km
# MJD 60696.000000 (2025 Jan 21  0:00)
2025-010A = NORAD 62716 = Blue Ghost
1 62716U 25010A   25021.49919926  .00000000  00000-0  00000-0 0 26000
2 62716 036.0568 358.3081 9299498 349.1627 257.8119 00.11830146    09

# Worst residual: 13.22 km
# MJD 60697.000000 (2025 Jan 22  0:00)
2025-010A = NORAD 62716 = Blue Ghost
1 62716U 25010A   25022.49919926  .00000000  00000-0  00000-0 0 26001
2 62716 035.9826 358.2983 9284631 349.0402 300.3481 00.11793248    04

# Worst residual: 40.14 km
# MJD 60698.000000 (2025 Jan 23  0:00)
2025-010A = NORAD 62716 = Blue Ghost
1 62716U 25010A   25023.49919926  .00000000  00000-0  00000-0 0 26002
2 62716 035.9730 358.2848 9275216 348.9699 342.5574 00.11821717    07

# Worst residual: 16.45 km
# MJD 60699.000000 (2025 Jan 24  0:00)
2025-010A = NORAD 62716 = Blue Ghost
1 62716U 25010A   25024.49919926  .00000000  00000-0  00000-0 0 26003
2 62716 035.9730 358.2450 9257350 348.9175 026.2224 00.12277949    05

# Worst residual: 15.04 km
# MJD 60700.000000 (2025 Jan 25  0:00)
2025-010A = NORAD 62716 = Blue Ghost
1 62716U 25010A   25025.49919926  .00000000  00000-0  00000-0 0 26004
2 62716 036.0138 358.2011 9266361 348.8955 069.9914 00.12251517    02

# Worst residual: 10.73 km
# MJD 60701.000000 (2025 Jan 26  0:00)
2025-010A = NORAD 62716 = Blue Ghost
1 62716U 25010A   25026.49919926  .00000000  00000-0  00000-0 0 26005
2 62716 036.0575 358.1652 9274616 348.9246 113.5715 00.12235113    02

# Worst residual: 8.86 km
# MJD 60702.000000 (2025 Jan 27  0:00)
2025-010A = NORAD 62716 = Blue Ghost
1 62716U 25010A   25027.49919926  .00000000  00000-0  00000-0 0 26006
2 62716 036.0637 358.1541 9275731 348.9843 157.1221 00.12225796    02

# Worst residual: 10.70 km
# MJD 60703.000000 (2025 Jan 28  0:00)
2025-010A = NORAD 62716 = Blue Ghost
1 62716U 25010A   25028.49919926  .00000000  00000-0  00000-0 0 26007
2 62716 036.0274 358.1579 9268484 349.0153 200.8713 00.12218217    05

# Worst residual: 21.75 km
# MJD 60704.000000 (2025 Jan 29  0:00)
2025-010A = NORAD 62716 = Blue Ghost
1 62716U 25010A   25029.49919926  .00000000  00000-0  00000-0 0 26008
2 62716 035.9794 358.1593 9257562 348.9674 245.0144 00.12193390    00

# Worst residual: 67.28 km
# MJD 60705.000000 (2025 Jan 30  0:00)
2025-010A = NORAD 62716 = Blue Ghost
1 62716U 25010A   25030.49919926  .00000000  00000-0  00000-0 0 26000
2 62716 035.9648 358.1516 9251676 348.8217 289.5695 00.12092578    05

# Worst residual: 334.91 km
# MJD 60706.000000 (2025 Jan 31  0:00)
2025-010A = NORAD 62716 = Blue Ghost
1 62716U 25010A   25031.49919926  .00000000  00000-0  00000-0 0 26001
2 62716 035.9967 358.1655 9273345 348.5086 334.2319 00.11494566    04

# Worst residual: 266.69 km
# MJD 60707.000000 (2025 Feb  1  0:00)
2025-010A = NORAD 62716 = Blue Ghost
1 62716U 25010A   25032.49919926  .00000000  00000-0  00000-0 0 26002
2 62716 036.0390 358.1432 9299222 349.5811 015.5335 00.11517582    09

# Worst residual: 54.27 km
# MJD 60708.000000 (2025 Feb  2  0:00)
2025-010A = NORAD 62716 = Blue Ghost
1 62716U 25010A   25033.49919926  .00000000  00000-0  00000-0 0 26003
2 62716 036.0623 358.1287 9262898 349.5385 060.5947 00.12097389    09

# Worst residual: 23.52 km
# MJD 60709.000000 (2025 Feb  3  0:00)
2025-010A = NORAD 62716 = Blue Ghost
1 62716U 25010A   25034.49919926  .00000000  00000-0  00000-0 0 26004
2 62716 036.0480 358.1336 9261877 349.4210 105.1318 00.12189067    00

# Worst residual: 6.63 km
# MJD 60710.000000 (2025 Feb  4  0:00)
2025-010A = NORAD 62716 = Blue Ghost
1 62716U 25010A   25035.49919926  .00000000  00000-0  00000-0 0 26005
2 62716 036.0710 358.1139 9267240 349.3958 149.2490 00.12209721    05

# Worst residual: 7.90 km
# MJD 60711.000000 (2025 Feb  5  0:00)
2025-010A = NORAD 62716 = Blue Ghost
1 62716U 25010A   25036.49919926  .00000000  00000-0  00000-0 0 26006
2 62716 036.1093 358.0906 9273180 349.4374 192.9712 00.12215382    06

# Worst residual: 12.93 km
# MJD 60712.000000 (2025 Feb  6  0:00)
2025-010A = NORAD 62716 = Blue Ghost
1 62716U 25010A   25037.49919926  .00000000  00000-0  00000-0 0 26007
2 62716 036.1184 358.0775 9271441 349.4944 236.4933 00.12221980    02

# Worst residual: 14.58 km
# MJD 60713.000000 (2025 Feb  7  0:00)
2025-010A = NORAD 62716 = Blue Ghost
1 62716U 25010A   25038.49919926  .00000000  00000-0  00000-0 0 26008
2 62716 036.0845 358.0683 9260601 349.4843 280.1139 00.12226736    05

# Worst residual: 19.50 km
# MJD 60714.000000 (2025 Feb  8  0:00)
2025-010A = NORAD 62716 = Blue Ghost
1 62716U 25010A   25039.49919926  .00000000  00000-0  00000-0 0 26009
2 62716 036.0642 358.0557 9251356 349.3941 323.9995 00.12194551    00

# Worst residual: 432.61 km
# MJD 60715.000000 (2025 Feb  9  0:00)
2025-010A = NORAD 62716 = Blue Ghost
1 62716U 25010A   25040.49919926  .00000000  00000-0  00000-0 0 26001
2 62716 035.9576 358.0440 9348683 349.3603 003.7022 00.09552739    06

# Worst residual: 34.10 km
# MJD 60716.000000 (2025 Feb 10  0:00)
2025-010A = NORAD 62716 = Blue Ghost
1 62716U 25010A   25041.49919926  .00000000  00000-0  00000-0 0 26002
2 62716 036.0414 357.9089 9374905 349.2013 036.3648 00.09290190    02

# Worst residual: 38.59 km
# MJD 60717.000000 (2025 Feb 11  0:00)
2025-010A = NORAD 62716 = Blue Ghost
1 62716U 25010A   25042.49919926  .00000000  00000-0  00000-0 0 26003
2 62716 036.2354 357.7355 9394827 349.0895 069.4558 00.09290110    01

# Worst residual: 121.97 km
# MJD 60718.000000 (2025 Feb 12  0:00)
2025-010A = NORAD 62716 = Blue Ghost
1 62716U 25010A   25043.49919926  .00000000  00000-0  00000-0 0 26004
2 62716 036.8811 357.3175 9448582 348.8893 103.1943 00.09352591    00

# Worst residual: 1141.33 km
# MJD 60719.000000 (2025 Feb 13  0:00)
2025-010A = NORAD 62716 = Blue Ghost
1 62716U 25010A   25044.49919926  .00000000  00000-0  00000-0 0 26005
2 62716 042.9917 354.6651 9699175 349.3203 137.6010 00.09534125    03
Avg worst resid: 353.58 km
Worst residual in entire run: 1141.33 km on MJD 60719.0
       1     3     10    30    100   300   1K    3K    10K   km
     0     0     0     0     2     1     1     1     0     0
Updated Wed Feb 12 23:48:15 2025 UTC
